{
	"maps": {
		"ascent": [
			{ "id": 1, "placeName": "Aロビー" },
			{ "id": 2, "placeName": "Aメイン" },
			{ "id": 3, "placeName": "Aサイト" },
			{ "id": 4, "placeName": "Aヘヴン" },
			{ "id": 5, "placeName": "Aウィンドウ" },
			{ "id": 6, "placeName": "Aショート" },
			{ "id": 7, "placeName": "ACT" },
			{ "id": 8, "placeName": "ワイン" },
			{ "id": 9, "placeName": "ツリー" },
			{ "id": 10, "placeName": "ガーデン" },
			{ "id": 11, "placeName": "ハイミッド" },
			{ "id": 12, "placeName": "ミッド" },
			{ "id": 13, "placeName": "キャットウォーク" },
			{ "id": 14, "placeName": "中央リンク" },
			{ "id": 15, "placeName": "ボトム" },
			{ "id": 16, "placeName": "ピザ" },
			{ "id": 17, "placeName": "マーケット" },
			{ "id": 18, "placeName": "Bロビー" },
			{ "id": 19, "placeName": "Bメイン" },
			{ "id": 20, "placeName": "Bサイト" },
			{ "id": 21, "placeName": "BCT" },
			{ "id": 22, "placeName": "スイッチ" },
			{ "id": 23, "placeName": "ボート" }
		],
		"split": [
			{ "id": 1, "placeName": "Aロビー" },
			{ "id": 2, "placeName": "Aメイン" },
			{ "id": 3, "placeName": "Aサイト" },
			{ "id": 4, "placeName": "Aヘヴン" },
			{ "id": 5, "placeName": "Aスロープ" },
			{ "id": 6, "placeName": "Aタワー" },
			{ "id": 7, "placeName": "ACT" },
			{ "id": 8, "placeName": "エルボー" },
			{ "id": 9, "placeName": "ベント" },
			{ "id": 10, "placeName": "ミッド" },
			{ "id": 11, "placeName": "メールボックス" },
			{ "id": 12, "placeName": "Bリンク" },
			{ "id": 13, "placeName": "Bロビー" },
			{ "id": 14, "placeName": "Bメイン" },
			{ "id": 15, "placeName": "Bサイト" },
			{ "id": 16, "placeName": "BCT" },
			{ "id": 17, "placeName": "Bバック" },
			{ "id": 18, "placeName": "ボート" }
		],
		"haven": [
			{ "id": 1, "placeName": "Aロビー" },
			{ "id": 2, "placeName": "Aロング" },
			{ "id": 3, "placeName": "Aサイト" },
			{ "id": 4, "placeName": "Aヘヴン" },
			{ "id": 5, "placeName": "Aリンク" },
			{ "id": 6, "placeName": "Aショート" },
			{ "id": 7, "placeName": "ACT" },
			{ "id": 8, "placeName": "ヘヴン下" },
			{ "id": 9, "placeName": "ガーデン" },
			{ "id": 10, "placeName": "中央ウィンドウ" },
			{ "id": 11, "placeName": "ガレージ前" },
			{ "id": 12, "placeName": "ミッド" },
			{ "id": 13, "placeName": "Bバック" },
			{ "id": 14, "placeName": "Bサイト" },
			{ "id": 15, "placeName": "ガレージ" },
			{ "id": 16, "placeName": "ガレージウィンドウ" },
			{ "id": 17, "placeName": "Cロビ" },
			{ "id": 18, "placeName": "Cロング" },
			{ "id": 19, "placeName": "Cサイト" },
			{ "id": 20, "placeName": "CCT" },
			{ "id": 21, "placeName": "Cバック" },
			{ "id": 22, "placeName": "小部屋" }
		],
		"bind": [
			{ "id": 1, "placeName": "Aロビー" },
			{ "id": 2, "placeName": "Aサイト" },
			{ "id": 3, "placeName": "Aヘヴン" },
			{ "id": 4, "placeName": "Aリンク" },
			{ "id": 5, "placeName": "Aショート" },
			{ "id": 6, "placeName": "ACT" },
			{ "id": 7, "placeName": "浴場" },
			{ "id": 8, "placeName": "ランプ" },
			{ "id": 9, "placeName": "Bリンク" },
			{ "id": 10, "placeName": "Bショート" },
			{ "id": 11, "placeName": "Bロング" },
			{ "id": 12, "placeName": "Bサイト" },
			{ "id": 13, "placeName": "BCT" },
			{ "id": 14, "placeName": "ガーデン" },
			{ "id": 15, "placeName": "ファウンテン" },
			{ "id": 16, "placeName": "エルボー" }
		],
		"icebox": [
			{ "id": 1, "placeName": "Aサイト" },
			{ "id": 2, "placeName": "Aサイト上" },
			{ "id": 3, "placeName": "Aヘヴン" },
			{ "id": 4, "placeName": "ベルト" },
			{ "id": 5, "placeName": "パイプ" },
			{ "id": 6, "placeName": "ネスト" },
			{ "id": 7, "placeName": "スクリーン" },
			{ "id": 8, "placeName": "ミッド" },
			{ "id": 9, "placeName": "ボイラー" },
			{ "id": 10, "placeName": "Bサイト" },
			{ "id": 11, "placeName": "Bサイト上" },
			{ "id": 12, "placeName": "チューブ" },
			{ "id": 13, "placeName": "チューブ下" },
			{ "id": 14, "placeName": "キッチン" },
			{ "id": 15, "placeName": "オレンジ" },
			{ "id": 16, "placeName": "ホール" },
			{ "id": 17, "placeName": "ガレージ" },
			{ "id": 18, "placeName": "グリーン" },
			{ "id": 19, "placeName": "イエロー" },
			{ "id": 20, "placeName": "雪だるま" },
			{ "id": 21, "placeName": "CT" }
		],
		"breeze": [
			{ "id": 1, "placeName": "Aロビー" },
			{ "id": 2, "placeName": "Aメイン" },
			{ "id": 3, "placeName": "Aサイト" },
			{ "id": 4, "placeName": "ACT" },
			{ "id": 5, "placeName": "キング" },
			{ "id": 6, "placeName": "DD" },
			{ "id": 7, "placeName": "スイッチ" },
			{ "id": 8, "placeName": "メタルドア" },
			{ "id": 9, "placeName": "ホール" },
			{ "id": 10, "placeName": "ブリッジ" },
			{ "id": 11, "placeName": "ロープ" },
			{ "id": 12, "placeName": "ミッド" },
			{ "id": 13, "placeName": "トップ" },
			{ "id": 14, "placeName": "ネスト" },
			{ "id": 15, "placeName": "キャノン" },
			{ "id": 16, "placeName": "Bメイン" },
			{ "id": 17, "placeName": "Bサイト" },
			{ "id": 18, "placeName": "BCT" },
			{ "id": 19, "placeName": "スネーク" },
			{ "id": 20, "placeName": "ウィンドウ" },
			{ "id": 21, "placeName": "エルボー" },
			{ "id": 22, "placeName": "ウォール" },
			{ "id": 23, "placeName": "バック" }
		],
		"fracture": [
			{ "id": 1, "placeName": "Aサイト" },
			{ "id": 2, "placeName": "Aサイト上" },
			{ "id": 3, "placeName": "Aメイン" },
			{ "id": 4, "placeName": "ACT" },
			{ "id": 5, "placeName": "ホール" },
			{ "id": 6, "placeName": "ドロップ" },
			{ "id": 7, "placeName": "ロープ" },
			{ "id": 8, "placeName": "ドア" },
			{ "id": 9, "placeName": "パラボラ" },
			{ "id": 10, "placeName": "Bメイン" },
			{ "id": 11, "placeName": "Bサイト" },
			{ "id": 12, "placeName": "BCT" },
			{ "id": 13, "placeName": "ツリー" },
			{ "id": 14, "placeName": "トンネル" },
			{ "id": 15, "placeName": "カンティーン" },
			{ "id": 16, "placeName": "ジェネレーター" },
			{ "id": 17, "placeName": "タワー" },
			{ "id": 18, "placeName": "アーケード" }
		],
		"pearl": [
			{ "id": 1, "placeName": "Aサイト" },
			{ "id": 2, "placeName": "Aリンク" },
			{ "id": 3, "placeName": "Aメイン" },
			{ "id": 4, "placeName": "レストラン" },
			{ "id": 5, "placeName": "ダグアウト" },
			{ "id": 6, "placeName": "フラワー" },
			{ "id": 7, "placeName": "シークレット" },
			{ "id": 8, "placeName": "アート" },
			{ "id": 9, "placeName": "トップ" },
			{ "id": 10, "placeName": "DD" },
			{ "id": 11, "placeName": "ミッド" },
			{ "id": 12, "placeName": "ショップ" },
			{ "id": 13, "placeName": "コネクター" },
			{ "id": 14, "placeName": "クラブ" },
			{ "id": 15, "placeName": "Bメイン" },
			{ "id": 16, "placeName": "Bサイト" },
			{ "id": 17, "placeName": "Bリンク" },
			{ "id": 18, "placeName": "アーケード" },
			{ "id": 19, "placeName": "ヘヴン" },
			{ "id": 20, "placeName": "バック" },
			{ "id": 21, "placeName": "CT" }
		],
		"rotus": [
			{ "id": 1, "placeName": "Aメイン" },
			{ "id": 2, "placeName": "Aサイト" },
			{ "id": 3, "placeName": "Aロビー" },
			{ "id": 4, "placeName": "Aリンク" },
			{ "id": 5, "placeName": "Aヘヴン" },
			{ "id": 6, "placeName": "ツリー" },
			{ "id": 7, "placeName": "ドロップ" },
			{ "id": 8, "placeName": "がれき" },
			{ "id": 9, "placeName": "階段" },
			{ "id": 10, "placeName": "Bメイン" },
			{ "id": 11, "placeName": "Bサイト" },
			{ "id": 12, "placeName": "Bヘヴン" },
			{ "id": 13, "placeName": "Cリンク" },
			{ "id": 14, "placeName": "Cロビー" },
			{ "id": 15, "placeName": "Cメイン" },
			{ "id": 16, "placeName": "Cサイト" },
			{ "id": 17, "placeName": "CCT" },
			{ "id": 18, "placeName": "滝" },
			{ "id": 19, "placeName": "砂利道" }
		],
		"sunset": [
			{ "id": 1, "placeName": "Aメイン" },
			{ "id": 2, "placeName": "Aサイト" },
			{ "id": 3, "placeName": "Aロビー" },
			{ "id": 4, "placeName": "Aリンク" },
			{ "id": 5, "placeName": "ACT" },
			{ "id": 6, "placeName": "エルボー" },
			{ "id": 7, "placeName": "ミッド" },
			{ "id": 8, "placeName": "タイル" },
			{ "id": 9, "placeName": "トップ" },
			{ "id": 10, "placeName": "マーケット" },
			{ "id": 11, "placeName": "Bサイト" },
			{ "id": 12, "placeName": "Bメイン" },
			{ "id": 13, "placeName": "Bロビー" },
			{ "id": 14, "placeName": "BCT" }
		],
		"abyss": [
			{ "id": 1, "placeName": "Aメイン" },
			{ "id": 2, "placeName": "Aサイト" },
			{ "id": 3, "placeName": "Aロビー" },
			{ "id": 4, "placeName": "Aリンク" },
			{ "id": 5, "placeName": "ACT" },
			{ "id": 6, "placeName": "Aヘヴン" },
			{ "id": 7, "placeName": "ブリッジ" },
			{ "id": 8, "placeName": "換気通路" },
			{ "id": 9, "placeName": "CT" },
			{ "id": 10, "placeName": "ミッド" },
			{ "id": 11, "placeName": "ベント" },
			{ "id": 12, "placeName": "キャットウォーク" },
			{ "id": 13, "placeName": "トップ" },
			{ "id": 14, "placeName": "Bロビー" },
			{ "id": 15, "placeName": "Bメイン" },
			{ "id": 16, "placeName": "Bサイト" },
			{ "id": 17, "placeName": "Bリンク" },
			{ "id": 18, "placeName": "Bヘヴン" },
			{ "id": 19, "placeName": "ネスト" }
		]
	}
}
